{
    "links": {
        "self": "http://www.neowsapp.com/rest/v1/neo/3686272?api_key=iIulBulltgU6a56xZRHN4H3l9WmuAYTsLGpBGhQ2"
    },
    "id": "3686272",
    "neo_reference_id": "3686272",
    "name": "(2014 QN434)",
    "designation": "2014 QN434",
    "nasa_jpl_url": "http://ssd.jpl.nasa.gov/sbdb.cgi?sstr=3686272",
    "absolute_magnitude_h": 25.0,
    "estimated_diameter": {
        "kilometers": {
            "estimated_diameter_min": 0.02658,
            "estimated_diameter_max": 0.0594346868
        },
        "meters": {
            "estimated_diameter_min": 26.58,
            "estimated_diameter_max": 59.4346868419
        },
        "miles": {
            "estimated_diameter_min": 0.0165160412,
            "estimated_diameter_max": 0.0369309908
        },
        "feet": {
            "estimated_diameter_min": 87.2047272,
            "estimated_diameter_max": 194.9956979785
        }
    },
    "is_potentially_hazardous_asteroid": false,
    "close_approach_data": [
        {
            "close_approach_date": "2014-08-30",
            "close_approach_date_full": "2014-Aug-30 14:03",
            "epoch_date_close_approach": 1409407380000,
            "relative_velocity": {
                "kilometers_per_second": "7.5125500736",
                "kilometers_per_hour": "27045.1802649429",
                "miles_per_hour": "16804.8232596252"
            },
            "miss_distance": {
                "astronomical": "0.0870890945",
                "lunar": "33.8776577605",
                "kilometers": "13028343.037428715",
                "miles": "8095436.973057667"
            },
            "orbiting_body": "Earth"
        }
    ],
    "orbital_data": {
        "orbit_id": "5",
        "orbit_determination_date": "2017-04-06 08:38:51",
        "first_observation_date": "2014-08-30",
        "last_observation_date": "2014-09-03",
        "data_arc_in_days": 4,
        "observations_used": 18,
        "orbit_uncertainty": "8",
        "minimum_orbit_intersection": ".0870242",
        "jupiter_tisserand_invariant": "5.336",
        "epoch_osculation": "2456901.5",
        "eccentricity": ".0763054569038067",
        "semi_major_axis": "1.177793937355038",
        "inclination": "14.63542392801587",
        "ascending_node_longitude": "155.6204589061601",
        "orbital_period": "466.8769129209319",
        "perihelion_distance": "1.087921832826628",
        "perihelion_argument": "208.4737996796358",
        "aphelion_distance": "1.267666041883447",
        "perihelion_time": "2456930.460272096680",
        "mean_anomaly": "337.669279276248",
        "mean_motion": ".7710811780084057",
        "equinox": "J2000",
        "orbit_class": {
            "orbit_class_type": "AMO",
            "orbit_class_description": "Near-Earth asteroid orbits similar to that of 1221 Amor",
            "orbit_class_range": "1.017 AU < q (perihelion) < 1.3 AU"
        }
    },
    "is_sentry_object": false
}